[{"OBJECT_NAME":"ION SCV-011","OBJECT_ID":"2023-084AB","EPOCH":"2026-03-09T22:35:16.566144","MEAN_MOTION":15.27752464,"ECCENTRICITY":0.00079323,"INCLINATION":98.1356,"RA_OF_ASC_NODE":247.1056,"ARG_OF_PERICENTER":30.3898,"MEAN_ANOMALY":329.7798,"EPHEMERIS_TYPE":0,"CLASSIFICATION_TYPE":"U","NORAD_CAT_ID":56957,"ELEMENT_SET_NO":999,"REV_AT_EPOCH":15065,"BSTAR":0.0002590454,"MEAN_MOTION_DOT":6.943e-5,"MEAN_MOTION_DDOT":0},{"OBJECT_NAME":"STARLINK-34137","OBJECT_ID":"2025-099B","EPOCH":"2026-03-09T08:22:49.596096","MEAN_MOTION":15.27594804,"ECCENTRICITY":8.534e-5,"INCLINATION":43.0034,"RA_OF_ASC_NODE":178.2024,"ARG_OF_PERICENTER":278.3603,"MEAN_ANOMALY":81.7152,"EPHEMERIS_TYPE":0,"CLASSIFICATION_TYPE":"U","NORAD_CAT_ID":63953,"ELEMENT_SET_NO":999,"REV_AT_EPOCH":4728,"BSTAR":0.0009667544,"MEAN_MOTION_DOT":0.00026448,"MEAN_MOTION_DDOT":0}]
